CCSDS_OMM_VERS = 2.0
CREATION_DATE  = 
ORIGINATOR     = 

OBJECT_NAME    = STARLINK-36584
OBJECT_ID      = 2026-014R
CENTER_NAME    = EARTH
REF_FRAME      = TEME
TIME_SYSTEM    = UTC
MEAN_ELEMENT_THEORY = SGP/SGP4

EPOCH          = 2026-02-21T11:24:43.992288
MEAN_MOTION    = 15.75329437
ECCENTRICITY   = .0003218
INCLINATION    = 97.2812
RA_OF_ASC_NODE = 296.6455
ARG_OF_PERICENTER = 135.4869
MEAN_ANOMALY   = 224.6655

EPHEMERIS_TYPE = 0
CLASSIFICATION_TYPE = U
NORAD_CAT_ID   = 67547
ELEMENT_SET_NO = 999
REV_AT_EPOCH   = 602
BSTAR          = .24474E-2
MEAN_MOTION_DOT = .38415E-2
MEAN_MOTION_DDOT = 0

CCSDS_OMM_VERS = 2.0
CREATION_DATE  = 
ORIGINATOR     = 

OBJECT_NAME    = STARLINK-36586
OBJECT_ID      = 2026-014S
CENTER_NAME    = EARTH
REF_FRAME      = TEME
TIME_SYSTEM    = UTC
MEAN_ELEMENT_THEORY = SGP/SGP4

EPOCH          = 2026-02-21T12:00:01.999296
MEAN_MOTION    = 15.77436659
ECCENTRICITY   = .0001778
INCLINATION    = 97.2840
RA_OF_ASC_NODE = 296.7293
ARG_OF_PERICENTER = 89.6323
MEAN_ANOMALY   = 171.1458

EPHEMERIS_TYPE = 0
CLASSIFICATION_TYPE = U
NORAD_CAT_ID   = 67548
ELEMENT_SET_NO = 999
REV_AT_EPOCH   = 608
BSTAR          = -.1238E-1
MEAN_MOTION_DOT = -.1792507E-1
MEAN_MOTION_DDOT = 0

CCSDS_OMM_VERS = 2.0
CREATION_DATE  = 
ORIGINATOR     = 

OBJECT_NAME    = STARLINK-36564
OBJECT_ID      = 2026-014T
CENTER_NAME    = EARTH
REF_FRAME      = TEME
TIME_SYSTEM    = UTC
MEAN_ELEMENT_THEORY = SGP/SGP4

EPOCH          = 2026-02-21T04:24:24.837120
MEAN_MOTION    = 15.75194060
ECCENTRICITY   = .0002429
INCLINATION    = 97.2827
RA_OF_ASC_NODE = 296.2848
ARG_OF_PERICENTER = 175.5336
MEAN_ANOMALY   = 184.5952

EPHEMERIS_TYPE = 0
CLASSIFICATION_TYPE = U
NORAD_CAT_ID   = 67549
ELEMENT_SET_NO = 999
REV_AT_EPOCH   = 591
BSTAR          = .14038E-2
MEAN_MOTION_DOT = .214656E-2
MEAN_MOTION_DDOT = 0

CCSDS_OMM_VERS = 2.0
CREATION_DATE  = 
ORIGINATOR     = 

OBJECT_NAME    = STARLINK-36563
OBJECT_ID      = 2026-014U
CENTER_NAME    = EARTH
REF_FRAME      = TEME
TIME_SYSTEM    = UTC
MEAN_ELEMENT_THEORY = SGP/SGP4

EPOCH          = 2026-02-21T05:49:48.465120
MEAN_MOTION    = 15.75218561
ECCENTRICITY   = .0001404
INCLINATION    = 97.2830
RA_OF_ASC_NODE = 296.3518
ARG_OF_PERICENTER = 83.8412
MEAN_ANOMALY   = 276.3013

EPHEMERIS_TYPE = 0
CLASSIFICATION_TYPE = U
NORAD_CAT_ID   = 67550
ELEMENT_SET_NO = 999
REV_AT_EPOCH   = 598
BSTAR          = .19234E-2
MEAN_MOTION_DOT = .297338E-2
MEAN_MOTION_DDOT = 0

CCSDS_OMM_VERS = 2.0
CREATION_DATE  = 
ORIGINATOR     = 

OBJECT_NAME    = STARLINK-36566
OBJECT_ID      = 2026-014V
CENTER_NAME    = EARTH
REF_FRAME      = TEME
TIME_SYSTEM    = UTC
MEAN_ELEMENT_THEORY = SGP/SGP4

EPOCH          = 2026-02-21T10:21:12.228192
MEAN_MOTION    = 15.75267589
ECCENTRICITY   = .0002547
INCLINATION    = 97.2837
RA_OF_ASC_NODE = 296.5557
ARG_OF_PERICENTER = 37.7653
MEAN_ANOMALY   = 322.3790

EPHEMERIS_TYPE = 0
CLASSIFICATION_TYPE = U
NORAD_CAT_ID   = 67551
ELEMENT_SET_NO = 999
REV_AT_EPOCH   = 600
BSTAR          = .11496E-2
MEAN_MOTION_DOT = .175503E-2
MEAN_MOTION_DDOT = 0

CCSDS_OMM_VERS = 2.0
CREATION_DATE  = 
ORIGINATOR     = 

OBJECT_NAME    = STARLINK-36567
OBJECT_ID      = 2026-014W
CENTER_NAME    = EARTH
REF_FRAME      = TEME
TIME_SYSTEM    = UTC
MEAN_ELEMENT_THEORY = SGP/SGP4

EPOCH          = 2026-02-21T10:33:23.526432
MEAN_MOTION    = 15.75248165
ECCENTRICITY   = .0002389
INCLINATION    = 97.2841
RA_OF_ASC_NODE = 296.5405
ARG_OF_PERICENTER = 133.8135
MEAN_ANOMALY   = 226.3328

EPHEMERIS_TYPE = 0
CLASSIFICATION_TYPE = U
NORAD_CAT_ID   = 67552
ELEMENT_SET_NO = 999
REV_AT_EPOCH   = 600
BSTAR          = .19748E-2
MEAN_MOTION_DOT = .305994E-2
MEAN_MOTION_DDOT = 0

CCSDS_OMM_VERS = 2.0
CREATION_DATE  = 
ORIGINATOR     = 

OBJECT_NAME    = STARLINK-36569
OBJECT_ID      = 2026-014X
CENTER_NAME    = EARTH
REF_FRAME      = TEME
TIME_SYSTEM    = UTC
MEAN_ELEMENT_THEORY = SGP/SGP4

EPOCH          = 2026-02-21T05:21:21.508704
MEAN_MOTION    = 15.75193575
ECCENTRICITY   = .0002565
INCLINATION    = 97.2838
RA_OF_ASC_NODE = 296.3769
ARG_OF_PERICENTER = 68.2533
MEAN_ANOMALY   = 291.9005

EPHEMERIS_TYPE = 0
CLASSIFICATION_TYPE = U
NORAD_CAT_ID   = 67553
ELEMENT_SET_NO = 999
REV_AT_EPOCH   = 597
BSTAR          = .18709E-2
MEAN_MOTION_DOT = .288617E-2
MEAN_MOTION_DDOT = 0

CCSDS_OMM_VERS = 2.0
CREATION_DATE  = 
ORIGINATOR     = 

OBJECT_NAME    = STARLINK-36395
OBJECT_ID      = 2026-014Y
CENTER_NAME    = EARTH
REF_FRAME      = TEME
TIME_SYSTEM    = UTC
MEAN_ELEMENT_THEORY = SGP/SGP4

EPOCH          = 2026-02-21T10:25:15.696480
MEAN_MOTION    = 15.75265527
ECCENTRICITY   = .0002497
INCLINATION    = 97.2848
RA_OF_ASC_NODE = 296.5487
ARG_OF_PERICENTER = 127.8102
MEAN_ANOMALY   = 232.3390

EPHEMERIS_TYPE = 0
CLASSIFICATION_TYPE = U
NORAD_CAT_ID   = 67554
ELEMENT_SET_NO = 999
REV_AT_EPOCH   = 600
BSTAR          = .19491E-2
MEAN_MOTION_DOT = .302111E-2
MEAN_MOTION_DDOT = 0

CCSDS_OMM_VERS = 2.0
CREATION_DATE  = 
ORIGINATOR     = 

OBJECT_NAME    = STARLINK-36559
OBJECT_ID      = 2026-014Z
CENTER_NAME    = EARTH
REF_FRAME      = TEME
TIME_SYSTEM    = UTC
MEAN_ELEMENT_THEORY = SGP/SGP4

EPOCH          = 2026-02-21T05:52:51.487104
MEAN_MOTION    = 15.75216728
ECCENTRICITY   = .0001585
INCLINATION    = 97.2840
RA_OF_ASC_NODE = 296.3476
ARG_OF_PERICENTER = 86.4290
MEAN_ANOMALY   = 273.7156

EPHEMERIS_TYPE = 0
CLASSIFICATION_TYPE = U
NORAD_CAT_ID   = 67555
ELEMENT_SET_NO = 999
REV_AT_EPOCH   = 597
BSTAR          = .95253E-3
MEAN_MOTION_DOT = .144543E-2
MEAN_MOTION_DDOT = 0

CCSDS_OMM_VERS = 2.0
CREATION_DATE  = 
ORIGINATOR     = 

OBJECT_NAME    = MR-2
OBJECT_ID      = 2026-015A
CENTER_NAME    = EARTH
REF_FRAME      = TEME
TIME_SYSTEM    = UTC
MEAN_ELEMENT_THEORY = SGP/SGP4

EPOCH          = 2026-02-21T10:32:15.969408
MEAN_MOTION    = 13.52686940
ECCENTRICITY   = .0004949
INCLINATION    = 88.9958
RA_OF_ASC_NODE = 280.3154
ARG_OF_PERICENTER = 67.5761
MEAN_ANOMALY   = 292.5914

EPHEMERIS_TYPE = 0
CLASSIFICATION_TYPE = U
NORAD_CAT_ID   = 67556
ELEMENT_SET_NO = 999
REV_AT_EPOCH   = 406
BSTAR          = .65747E-4
MEAN_MOTION_DOT = .56E-6
MEAN_MOTION_DDOT = 0

CCSDS_OMM_VERS = 2.0
CREATION_DATE  = 
ORIGINATOR     = 

OBJECT_NAME    = MR-1
OBJECT_ID      = 2026-015B
CENTER_NAME    = EARTH
REF_FRAME      = TEME
TIME_SYSTEM    = UTC
MEAN_ELEMENT_THEORY = SGP/SGP4

EPOCH          = 2026-02-21T03:26:58.425792
MEAN_MOTION    = 13.52662105
ECCENTRICITY   = .00050079
INCLINATION    = 88.9957
RA_OF_ASC_NODE = 280.3455
ARG_OF_PERICENTER = 66.9529
MEAN_ANOMALY   = 293.2151

EPHEMERIS_TYPE = 0
CLASSIFICATION_TYPE = U
NORAD_CAT_ID   = 67557
ELEMENT_SET_NO = 999
REV_AT_EPOCH   = 402
BSTAR          = .7201684E-4
MEAN_MOTION_DOT = .6E-6
MEAN_MOTION_DDOT = 0

CCSDS_OMM_VERS = 2.0
CREATION_DATE  = 
ORIGINATOR     = 

OBJECT_NAME    = ELECTRON R/B
OBJECT_ID      = 2026-015C
CENTER_NAME    = EARTH
REF_FRAME      = TEME
TIME_SYSTEM    = UTC
MEAN_ELEMENT_THEORY = SGP/SGP4

EPOCH          = 2026-02-21T13:55:27.066432
MEAN_MOTION    = 16.26155145
ECCENTRICITY   = .0101262
INCLINATION    = 88.9371
RA_OF_ASC_NODE = 279.2702
ARG_OF_PERICENTER = 154.8497
MEAN_ANOMALY   = 205.7789

EPHEMERIS_TYPE = 0
CLASSIFICATION_TYPE = U
NORAD_CAT_ID   = 67558
ELEMENT_SET_NO = 999
REV_AT_EPOCH   = 459
BSTAR          = .56564E-3
MEAN_MOTION_DOT = .14379184E+0
MEAN_MOTION_DDOT = -.23339E-5

CCSDS_OMM_VERS = 2.0
CREATION_DATE  = 
ORIGINATOR     = 

OBJECT_NAME    = ELECTRON KICK STAGE R/B
OBJECT_ID      = 2026-015D
CENTER_NAME    = EARTH
REF_FRAME      = TEME
TIME_SYSTEM    = UTC
MEAN_ELEMENT_THEORY = SGP/SGP4

EPOCH          = 2026-02-21T10:13:33.037248
MEAN_MOTION    = 14.68845552
ECCENTRICITY   = .0526358
INCLINATION    = 89.0485
RA_OF_ASC_NODE = 279.8355
ARG_OF_PERICENTER = 229.9789
MEAN_ANOMALY   = 125.4116

EPHEMERIS_TYPE = 0
CLASSIFICATION_TYPE = U
NORAD_CAT_ID   = 67559
ELEMENT_SET_NO = 999
REV_AT_EPOCH   = 440
BSTAR          = .95115E-3
MEAN_MOTION_DOT = .57017E-3
MEAN_MOTION_DDOT = -.10904E-7

CCSDS_OMM_VERS = 2.0
CREATION_DATE  = 
ORIGINATOR     = 

OBJECT_NAME    = STARLINK-36426
OBJECT_ID      = 2026-014AA
CENTER_NAME    = EARTH
REF_FRAME      = TEME
TIME_SYSTEM    = UTC
MEAN_ELEMENT_THEORY = SGP/SGP4

EPOCH          = 2026-02-21T11:18:38.491776
MEAN_MOTION    = 15.75268424
ECCENTRICITY   = .0003187
INCLINATION    = 97.2833
RA_OF_ASC_NODE = 296.6536
ARG_OF_PERICENTER = 64.2475
MEAN_ANOMALY   = 295.9119

EPHEMERIS_TYPE = 0
CLASSIFICATION_TYPE = U
NORAD_CAT_ID   = 67560
ELEMENT_SET_NO = 999
REV_AT_EPOCH   = 601
BSTAR          = .14568E-2
MEAN_MOTION_DOT = .223736E-2
MEAN_MOTION_DDOT = 0

CCSDS_OMM_VERS = 2.0
CREATION_DATE  = 
ORIGINATOR     = 

OBJECT_NAME    = STARLINK-36621
OBJECT_ID      = 2026-016A
CENTER_NAME    = EARTH
REF_FRAME      = TEME
TIME_SYSTEM    = UTC
MEAN_ELEMENT_THEORY = SGP/SGP4

EPOCH          = 2026-02-21T03:30:12.551904
MEAN_MOTION    = 15.75373692
ECCENTRICITY   = .0001668
INCLINATION    = 97.2829
RA_OF_ASC_NODE = 111.7343
ARG_OF_PERICENTER = 132.8174
MEAN_ANOMALY   = 227.3232

EPHEMERIS_TYPE = 0
CLASSIFICATION_TYPE = U
NORAD_CAT_ID   = 67561
ELEMENT_SET_NO = 999
REV_AT_EPOCH   = 419
BSTAR          = .24596954E-2
MEAN_MOTION_DOT = .386932E-2
MEAN_MOTION_DDOT = 0

